NORAD_CAT_ID,OBJECT_NAME,OBJECT_TYPE,EPOCH,MEAN_MOTION,ECCENTRICITY,INCLINATION,RA_OF_ASC_NODE,ARG_OF_PERICENTER,MEAN_ANOMALY,BSTAR,MEAN_MOTION_DOT,MEAN_MOTION_DDOT,TLE_LINE0,TLE_LINE1,TLE_LINE2,SEMIMAJOR_AXIS,PERIOD,APOGEE,PERIGEE,DECAYED
53902.0,STARLINK-5021,PAYLOAD,2024-06-14 11:05:06,15.08832324,0.0001296,53.2155,236.547,87.7061,272.4079,-6.0968e-05,-1.258e-05,0.0,0 STARLINK-5021,1 53902U 22119S   24166.46187798 -.00001258  00000-0 -60968-4 0  9994,2 53902  53.2155 236.5470 0001296  87.7061 272.4079 15.08832324 96794,6917.904,95.438,540.665,538.872,0.0
53902.0,STARLINK-5021,PAYLOAD,2024-06-15 10:55:52,15.08848329,0.0001344,53.2159,232.0856,94.5313,265.5832,7.3418e-05,8.81e-06,0.0,0 STARLINK-5021,1 53902U 22119S   24167.45547040  .00000881  00000-0  73418-4 0  9997,2 53902  53.2159 232.0856 0001344  94.5313 265.5832 15.08848329 96946,6917.855,95.437,540.65,538.79,0.0
53902.0,STARLINK-5021,PAYLOAD,2024-06-16 10:46:40,15.08841983,0.0001291,53.2155,227.6241,91.6622,268.4518,0.00018109,2.595e-05,0.0,0 STARLINK-5021,1 53902U 22119S   24168.44907458  .00002595  00000-0  18109-3 0  9999,2 53902  53.2155 227.6241 0001291  91.6622 268.4518 15.08841983 97091,6917.874,95.437,540.632,538.846,0.0
53902.0,STARLINK-5021,PAYLOAD,2024-06-17 20:09:46,15.08840145,0.0001247,53.2156,221.3816,87.6765,272.4369,4.7104e-05,4.62e-06,0.0,0 STARLINK-5021,1 53902U 22119S   24169.84011732  .00000462  00000-0  47104-4 0  9994,2 53902  53.2156 221.3816 0001247  87.6765 272.4369 15.08840145 97307,6917.88,95.438,540.608,538.882,0.0
53902.0,STARLINK-5021,PAYLOAD,2024-06-18 08:52:51,15.08833672,0.0001393,53.2164,219.0053,99.0023,261.1127,5.9372e-05,6.57e-06,0.0,0 STARLINK-5021,1 53902U 22119S   24170.37004255  .00000657  00000-0  59372-4 0  9992,2 53902  53.2164 219.0053 0001393  99.0023 261.1127 15.08833672 97381,6917.9,95.438,540.728,538.801,0.0
53902.0,STARLINK-5021,PAYLOAD,2024-06-18 20:00:33,15.08839222,0.0001409,53.2167,216.9241,99.1004,261.0147,8.6555e-05,1.09e-05,0.0,0 STARLINK-5021,1 53902U 22119S   24170.83371920  .00001090  00000-0  86555-4 0  9994,2 53902  53.2167 216.9241 0001409  99.1004 261.0147 15.08839222 97037,6917.883,95.438,540.722,538.773,0.0
53902.0,STARLINK-5021,PAYLOAD,2024-06-19 11:54:25,15.08833457,0.0001421,53.2165,213.9506,97.8321,262.2833,8.5811e-05,1.078e-05,0.0,0 STARLINK-5021,1 53902U 22119S   24171.49612517  .00001078  00000-0  85811-4 0  9997,2 53902  53.2165 213.9506 0001421  97.8321 262.2833 15.08833457 97137,6917.9,95.438,540.748,538.782,0.0
53902.0,STARLINK-5021,PAYLOAD,2024-06-20 10:09:48,15.08840732,0.0001415,53.2157,209.7896,100.6276,259.4876,5.2742e-05,5.52e-06,0.0,0 STARLINK-5021,1 53902U 22119S   24172.42348289  .00000552  00000-0  52742-4 0  9996,2 53902  53.2157 209.7896 0001415 100.6276 259.4876 15.08840732 97698,6917.878,95.438,540.722,538.764,0.0
53902.0,STARLINK-5021,PAYLOAD,2024-06-20 19:42:07,15.08844144,0.0001493,53.2167,208.0008,85.7549,274.3614,5.9627e-05,6.61e-06,0.0,0 STARLINK-5021,1 53902U 22119S   24172.82092077  .00000661  00000-0  59627-4 0  9991,2 53902  53.2167 208.0008 0001493  85.7549 274.3614 15.08844144 97336,6917.868,95.437,540.766,538.7,0.0
53902.0,STARLINK-5021,PAYLOAD,2024-06-21 11:35:59,15.08840953,0.0001325,53.2158,205.0244,95.9227,264.1916,6.7114e-05,7.8e-06,0.0,0 STARLINK-5021,1 53902U 22119S   24173.48332215  .00000780  00000-0  67114-4 0  9997,2 53902  53.2158 205.0244 0001325  95.9227 264.1916 15.08840953 97858,6917.877,95.437,540.659,538.826,0.0
53902.0,STARLINK-5021,PAYLOAD,2024-06-22 08:15:59,15.08841709,0.0001328,53.2159,201.1578,97.5873,262.527,3.2989e-05,2.37e-06,0.0,0 STARLINK-5021,1 53902U 22119S   24174.34444193  .00000237  00000-0  32989-4 0  9991,2 53902  53.2159 201.1578 0001328  97.5873 262.5270 15.08841709 97983,6917.875,95.437,540.659,538.821,0.0
53902.0,STARLINK-5021,PAYLOAD,2024-06-23 08:06:46,15.08841144,0.000139,53.216,196.6978,84.1503,275.9647,4.4406e-05,4.19e-06,0.0,0 STARLINK-5021,1 53902U 22119S   24175.33804203  .00000419  00000-0  44406-4 0  9992,2 53902  53.2160 196.6978 0001390  84.1503 275.9647 15.08841144 97718,6917.877,95.437,540.703,538.78,0.0
53902.0,STARLINK-5021,PAYLOAD,2024-06-24 07:57:33,15.08840324,0.0001321,53.2157,192.2371,95.4042,264.7101,4.8622e-05,4.86e-06,0.0,0 STARLINK-5021,1 53902U 22119S   24176.33164102  .00000486  00000-0  48622-4 0  9998,2 53902  53.2157 192.2371 0001321  95.4042 264.7101 15.08840324 98283,6917.879,95.438,540.658,538.831,0.0
53902.0,STARLINK-5021,PAYLOAD,2024-06-25 04:37:34,15.08835503,0.0001377,53.2156,188.3728,104.8886,255.2259,9.1458e-06,-1.42e-06,0.0,0 STARLINK-5021,1 53902U 22119S   24177.19276559 -.00000142  00000-0  91458-5 0  9999,2 53902  53.2156 188.3728 0001377 104.8886 255.2259 15.08835503 97995,6917.894,95.438,540.712,538.807,0.0
53902.0,STARLINK-5021,PAYLOAD,2024-06-25 07:48:21,15.08835678,0.000135,53.2155,187.7782,101.2636,258.8508,7.1695e-06,-1.74e-06,0.0,0 STARLINK-5021,1 53902U 22119S   24177.32524586 -.00000174  00000-0  71695-5 0  9996,2 53902  53.2155 187.7782 0001350 101.2636 258.8508 15.08835678 98431,6917.894,95.438,540.693,538.825,0.0
53902.0,STARLINK-5021,PAYLOAD,2024-06-26 06:03:45,15.0883842,0.0001348,53.2154,183.6154,102.1183,257.996,4.2736e-05,3.92e-06,0.0,0 STARLINK-5021,1 53902U 22119S   24178.25260466  .00000392  00000-0  42736-4 0  9997,2 53902  53.2154 183.6154 0001348 102.1183 257.9960 15.08838420 98151,6917.885,95.438,540.683,538.818,0.0
53902.0,STARLINK-5021,PAYLOAD,2024-06-27 07:29:55,15.08836331,0.0001231,53.2146,178.8563,99.7945,260.3187,6.1221e-05,6.87e-06,0.0,0 STARLINK-5021,1 53902U 22119S   24179.31244750  .00000687  00000-0  61221-4 0  9990,2 53902  53.2146 178.8563 0001231  99.7945 260.3187 15.08836331 98316,6917.892,95.438,540.608,538.905,0.0
53902.0,STARLINK-5021,PAYLOAD,2024-06-27 17:02:14,15.08839381,0.0001176,53.2144,177.0713,88.6868,271.4259,6.7502e-05,7.87e-06,0.0,0 STARLINK-5021,1 53902U 22119S   24179.70988640  .00000787  00000-0  67502-4 0  9995,2 53902  53.2144 177.0713 0001176  88.6868 271.4259 15.08839381 98794,6917.882,95.438,540.561,538.934,0.0
53902.0,STARLINK-5021,PAYLOAD,2024-06-28 07:20:42,15.08840912,0.0001297,53.2148,174.3948,88.1985,271.9156,5.6283e-05,6.08e-06,0.0,0 STARLINK-5021,1 53902U 22119S   24180.30604719  .00000608  00000-0  56283-4 0  9991,2 53902  53.2148 174.3948 0001297  88.1985 271.9156 15.08840912 98880,6917.878,95.437,540.64,538.845,0.0
53902.0,STARLINK-5021,PAYLOAD,2024-06-29 05:36:05,15.08845286,0.0001305,53.2148,170.2343,87.5285,272.5857,0.00012636,1.724e-05,0.0,0 STARLINK-5021,1 53902U 22119S   24181.23340235  .00001724  00000-0  12636-3 0  9997,2 53902  53.2148 170.2343 0001305  87.5285 272.5857 15.08845286 98604,6917.864,95.437,540.632,538.826,0.0
53902.0,STARLINK-5021,PAYLOAD,2024-06-29 08:46:52,15.08847262,0.0001305,53.2147,169.639,87.7593,272.3549,0.00014065,1.952e-05,0.0,0 STARLINK-5021,1 53902U 22119S   24181.36588055  .00001952  00000-0  14065-3 0  9996,2 53902  53.2147 169.6390 0001305  87.7593 272.3549 15.08847262 99042,6917.858,95.437,540.626,538.82,0.0
53902.0,STARLINK-5021,PAYLOAD,2024-06-29 16:43:47,15.08847125,0.0001235,53.2145,168.1524,95.172,264.9413,0.00015174,2.128e-05,0.0,0 STARLINK-5021,1 53902U 22119S   24181.69707939  .00002128  00000-0  15174-3 0  9994,2 53902  53.2145 168.1524 0001235  95.1720 264.9413 15.08847125 99090,6917.859,95.437,540.578,538.869,0.0
53902.0,STARLINK-5021,PAYLOAD,2024-06-30 05:26:53,15.08834585,0.0001356,53.2156,165.7722,97.1565,262.9581,2.5028e-05,1.1e-06,0.0,0 STARLINK-5021,1 53902U 22119S   24182.22701182  .00000110  00000-0  25028-4 0  9997,2 53902  53.2156 165.7722 0001356  97.1565 262.9581 15.08834585 98750,6917.897,95.438,540.7,538.824,0.0
53902.0,STARLINK-5021,PAYLOAD,2024-06-30 08:37:39,15.0883805,0.0001411,53.2152,165.1769,100.5198,259.5953,2.3467e-05,8.6e-07,0.0,0 STARLINK-5021,1 53902U 22119S   24182.35948978  .00000086  00000-0  23467-4 0  9994,2 53902  53.2152 165.1769 0001411 100.5198 259.5953 15.08838050 99199,6917.886,95.438,540.727,538.775,0.0
53902.0,STARLINK-5021,PAYLOAD,2024-07-01 05:17:40,15.08843498,0.0001348,53.2153,161.3126,95.7117,264.4029,3.3678e-05,2.48e-06,0.0,0 STARLINK-5021,1 53902U 22119S   24183.22060687  .00000248  00000-0  33678-4 0  9998,2 53902  53.2153 161.3126 0001348  95.7117 264.4029 15.08843498 98909,6917.87,95.437,540.667,538.802,0.0
53902.0,STARLINK-5021,PAYLOAD,2024-07-01 08:28:26,15.08845474,0.0001345,53.2152,160.7175,95.8425,264.2721,5.4422e-05,5.78e-06,0.0,0 STARLINK-5021,1 53902U 22119S   24183.35308508  .00000578  00000-0  54422-4 0  9995,2 53902  53.2152 160.7175 0001345  95.8425 264.2721 15.08845474 99347,6917.864,95.437,540.659,538.798,0.0
53902.0,STARLINK-5021,PAYLOAD,2024-07-02 05:08:27,15.08837714,0.0001287,53.2138,156.852,95.4336,264.6802,0.00014542,2.027e-05,0.0,0 STARLINK-5021,1 53902U 22119S   24184.21421040  .00002027  00000-0  14542-3 0  9997,2 53902  53.2138 156.8520 0001287  95.4336 264.6802 15.08837714 99053,6917.887,95.438,540.643,538.862,0.0
53902.0,STARLINK-5021,PAYLOAD,2024-07-02 22:37:42,15.08840266,0.000117,53.2157,153.581,90.6901,269.4226,5.2562e-05,5.49e-06,0.0,0 STARLINK-5021,1 53902U 22119S   24184.94285178  .00000549  00000-0  52562-4 0  9999,2 53902  53.2157 153.5810 0001170  90.6901 269.4226 15.08840266 99583,6917.88,95.438,540.554,538.935,0.0
53902.0,STARLINK-5021,PAYLOAD,2024-07-03 04:59:15,15.08834113,0.000142,53.215,152.3918,121.88,238.233,6.3702e-06,-1.87e-06,0.0,0 STARLINK-5021,1 53902U 22119S   24185.20781560 -.00000187  00000-0  63702-5 0  9993,2 53902  53.2150 152.3918 0001420 121.8800 238.2330 15.08834113 99208,6917.898,95.438,540.746,538.781,0.0
53902.0,STARLINK-5021,PAYLOAD,2024-07-03 14:31:33,15.08840021,0.0001319,53.2155,150.6118,120.3204,239.7918,3.7062e-05,3.02e-06,0.0,0 STARLINK-5021,1 53902U 22119S   24185.60525169  .00000302  00000-0  37062-4 0  9995,2 53902  53.2155 150.6118 0001319 120.3204 239.7918 15.08840021 99264,6917.88,95.438,540.658,538.833,0.0
